IRIDIUM 136             
1 42962U 17061H   23350.56503124  .00000330  00000+0  11074-3 0  9998
2 42962  86.3976  47.0562 0002240 101.7317 258.4130 14.34218979323881
